STARLINK-36366          
1 68122U 26044X   26073.50002315 -.01875191  11098-2 -29220-2 0  9991
2 68122  97.2806  33.7455 0001408  94.0837  88.3861 16.04237362  2172
STARLINK-36922          
1 68123U 26044Y   26073.50002315 -.01872862  11109-2 -28721-2 0  9992
2 68123  97.2807  33.7472 0001508 103.1049  82.9700 16.04504117  2178
STARLINK-36938          
1 68124U 26044Z   26073.50002315 -.01878535  11192-2 -28590-2 0  9992
2 68124  97.2807  33.7478 0001498  93.7267  93.9501 16.04631080  2170
STARLINK-36839          
1 68125U 26044AA  26073.50002315 -.01888400  11269-2 -29163-2 0  9997
2 68125  97.2809  33.7467 0001526  97.4841  87.0222 16.04388414  2121
ECHOSTAR 25             
1 68126U 26045A   26070.41163374  .00000389  00000+0  64833-4 0  9991
2 68126  26.8991  70.3993 6209397 175.3735 195.5868  3.74430284    50
ICOR SV                 
1 68127U 26046A   26072.90953491  .00482503  92133-4  10434-2 0  9997
2 68127 123.0797 224.1306 0140888 188.2572 171.6170 15.82606913   290
FIREFLY ALPHA R/B       
1 68128U 26046B   26073.45393828  .00043058  00000+0  60720-3 0  9990
2 68128 123.0916 226.1883 0013473 344.8101  15.2553 15.56120169   386
GUOWANG GROUP 20 OBJECT*
1 68129U 26047A   26073.79000740 -.00000135  00000+0  10581-4 0  9998
2 68129  50.0054  49.6876 0009157 269.8626  90.1230 14.05944220   289
GUOWANG GROUP 20 OBJECT*
1 68130U 26047B   26073.57662943 -.00000138  00000+0  86988-5 0  9993
2 68130  50.0038  50.5609 0007757 264.6066  95.3954 14.06063675   246
SHIYAN-30 03            
1 68139U 26048A   26073.59272773  .00003997  00000+0  38146-3 0  9999
2 68139  34.9997 114.6735 0004927 315.7360  44.2950 14.92809634   239
SHIYAN-30 04            
1 68140U 26048B   26073.52609497  .00003259  00000+0  31410-3 0  9999
2 68140  34.9911 115.0819 0004582 309.3351  50.6947 14.92493878   226
CZ-2D R/B               
1 68141U 26048C   26073.58983022  .00002113  00000+0  18950-3 0  9997
2 68141  35.1291 114.8293 0015521   6.4281 353.6624 14.95517011   234
