CCSDS_OMM_VERS = 2.0
CREATION_DATE  = 
ORIGINATOR     = 

OBJECT_NAME    = STARLINK-36366
OBJECT_ID      = 2026-044X
CENTER_NAME    = EARTH
REF_FRAME      = TEME
TIME_SYSTEM    = UTC
MEAN_ELEMENT_THEORY = SGP/SGP4

EPOCH          = 2026-03-14T12:00:02.000160
MEAN_MOTION    = 16.04237362
ECCENTRICITY   = .00014082
INCLINATION    = 97.2806
RA_OF_ASC_NODE = 33.7455
ARG_OF_PERICENTER = 94.0837
MEAN_ANOMALY   = 88.3861

EPHEMERIS_TYPE = 0
CLASSIFICATION_TYPE = U
NORAD_CAT_ID   = 68122
ELEMENT_SET_NO = 999
REV_AT_EPOCH   = 217
BSTAR          = -.29219742E-2
MEAN_MOTION_DOT = -.1875191E-1
MEAN_MOTION_DDOT = .11098029E-2

CCSDS_OMM_VERS = 2.0
CREATION_DATE  = 
ORIGINATOR     = 

OBJECT_NAME    = STARLINK-36922
OBJECT_ID      = 2026-044Y
CENTER_NAME    = EARTH
REF_FRAME      = TEME
TIME_SYSTEM    = UTC
MEAN_ELEMENT_THEORY = SGP/SGP4

EPOCH          = 2026-03-14T12:00:02.000160
MEAN_MOTION    = 16.04504117
ECCENTRICITY   = .00015084
INCLINATION    = 97.2807
RA_OF_ASC_NODE = 33.7472
ARG_OF_PERICENTER = 103.1049
MEAN_ANOMALY   = 82.9700

EPHEMERIS_TYPE = 0
CLASSIFICATION_TYPE = U
NORAD_CAT_ID   = 68123
ELEMENT_SET_NO = 999
REV_AT_EPOCH   = 217
BSTAR          = -.28720586E-2
MEAN_MOTION_DOT = -.1872862E-1
MEAN_MOTION_DDOT = .11109285E-2

CCSDS_OMM_VERS = 2.0
CREATION_DATE  = 
ORIGINATOR     = 

OBJECT_NAME    = STARLINK-36938
OBJECT_ID      = 2026-044Z
CENTER_NAME    = EARTH
REF_FRAME      = TEME
TIME_SYSTEM    = UTC
MEAN_ELEMENT_THEORY = SGP/SGP4

EPOCH          = 2026-03-14T12:00:02.000160
MEAN_MOTION    = 16.04631080
ECCENTRICITY   = .00014981
INCLINATION    = 97.2807
RA_OF_ASC_NODE = 33.7478
ARG_OF_PERICENTER = 93.7267
MEAN_ANOMALY   = 93.9501

EPHEMERIS_TYPE = 0
CLASSIFICATION_TYPE = U
NORAD_CAT_ID   = 68124
ELEMENT_SET_NO = 999
REV_AT_EPOCH   = 217
BSTAR          = -.28589991E-2
MEAN_MOTION_DOT = -.1878535E-1
MEAN_MOTION_DDOT = .11191633E-2

CCSDS_OMM_VERS = 2.0
CREATION_DATE  = 
ORIGINATOR     = 

OBJECT_NAME    = STARLINK-36839
OBJECT_ID      = 2026-044AA
CENTER_NAME    = EARTH
REF_FRAME      = TEME
TIME_SYSTEM    = UTC
MEAN_ELEMENT_THEORY = SGP/SGP4

EPOCH          = 2026-03-14T12:00:02.000160
MEAN_MOTION    = 16.04388414
ECCENTRICITY   = .00015269
INCLINATION    = 97.2809
RA_OF_ASC_NODE = 33.7467
ARG_OF_PERICENTER = 97.4841
MEAN_ANOMALY   = 87.0222

EPHEMERIS_TYPE = 0
CLASSIFICATION_TYPE = U
NORAD_CAT_ID   = 68125
ELEMENT_SET_NO = 999
REV_AT_EPOCH   = 212
BSTAR          = -.29162571E-2
MEAN_MOTION_DOT = -.18884E-1
MEAN_MOTION_DDOT = .11269099E-2

CCSDS_OMM_VERS = 2.0
CREATION_DATE  = 
ORIGINATOR     = 

OBJECT_NAME    = ECHOSTAR 25
OBJECT_ID      = 2026-045A
CENTER_NAME    = EARTH
REF_FRAME      = TEME
TIME_SYSTEM    = UTC
MEAN_ELEMENT_THEORY = SGP/SGP4

EPOCH          = 2026-03-11T09:52:45.155136
MEAN_MOTION    = 3.74430284
ECCENTRICITY   = .62093977
INCLINATION    = 26.8991
RA_OF_ASC_NODE = 70.3993
ARG_OF_PERICENTER = 175.3735
MEAN_ANOMALY   = 195.5868

EPHEMERIS_TYPE = 0
CLASSIFICATION_TYPE = U
NORAD_CAT_ID   = 68126
ELEMENT_SET_NO = 999
REV_AT_EPOCH   = 5
BSTAR          = .64832912E-4
MEAN_MOTION_DOT = .389E-5
MEAN_MOTION_DDOT = 0

CCSDS_OMM_VERS = 2.0
CREATION_DATE  = 
ORIGINATOR     = 

OBJECT_NAME    = ICOR SV
OBJECT_ID      = 2026-046A
CENTER_NAME    = EARTH
REF_FRAME      = TEME
TIME_SYSTEM    = UTC
MEAN_ELEMENT_THEORY = SGP/SGP4

EPOCH          = 2026-03-13T21:49:43.816224
MEAN_MOTION    = 15.82606913
ECCENTRICITY   = .0140888
INCLINATION    = 123.0797
RA_OF_ASC_NODE = 224.1306
ARG_OF_PERICENTER = 188.2572
MEAN_ANOMALY   = 171.6170

EPHEMERIS_TYPE = 0
CLASSIFICATION_TYPE = U
NORAD_CAT_ID   = 68127
ELEMENT_SET_NO = 999
REV_AT_EPOCH   = 29
BSTAR          = .10434E-2
MEAN_MOTION_DOT = .482503E-2
MEAN_MOTION_DDOT = .92133E-4

CCSDS_OMM_VERS = 2.0
CREATION_DATE  = 
ORIGINATOR     = 

OBJECT_NAME    = FIREFLY ALPHA R/B
OBJECT_ID      = 2026-046B
CENTER_NAME    = EARTH
REF_FRAME      = TEME
TIME_SYSTEM    = UTC
MEAN_ELEMENT_THEORY = SGP/SGP4

EPOCH          = 2026-03-14T10:53:40.267392
MEAN_MOTION    = 15.56120169
ECCENTRICITY   = .00134732
INCLINATION    = 123.0916
RA_OF_ASC_NODE = 226.1883
ARG_OF_PERICENTER = 344.8101
MEAN_ANOMALY   = 15.2553

EPHEMERIS_TYPE = 0
CLASSIFICATION_TYPE = U
NORAD_CAT_ID   = 68128
ELEMENT_SET_NO = 999
REV_AT_EPOCH   = 38
BSTAR          = .60720074E-3
MEAN_MOTION_DOT = .43058E-3
MEAN_MOTION_DDOT = 0

CCSDS_OMM_VERS = 2.0
CREATION_DATE  = 
ORIGINATOR     = 

OBJECT_NAME    = GUOWANG GROUP 20 OBJECT A
OBJECT_ID      = 2026-047A
CENTER_NAME    = EARTH
REF_FRAME      = TEME
TIME_SYSTEM    = UTC
MEAN_ELEMENT_THEORY = SGP/SGP4

EPOCH          = 2026-03-14T18:57:36.639360
MEAN_MOTION    = 14.05944220
ECCENTRICITY   = .0009157
INCLINATION    = 50.0054
RA_OF_ASC_NODE = 49.6876
ARG_OF_PERICENTER = 269.8626
MEAN_ANOMALY   = 90.1230

EPHEMERIS_TYPE = 0
CLASSIFICATION_TYPE = U
NORAD_CAT_ID   = 68129
ELEMENT_SET_NO = 999
REV_AT_EPOCH   = 28
BSTAR          = .10581E-4
MEAN_MOTION_DOT = -.135E-5
MEAN_MOTION_DDOT = 0

CCSDS_OMM_VERS = 2.0
CREATION_DATE  = 
ORIGINATOR     = 

OBJECT_NAME    = GUOWANG GROUP 20 OBJECT B
OBJECT_ID      = 2026-047B
CENTER_NAME    = EARTH
REF_FRAME      = TEME
TIME_SYSTEM    = UTC
MEAN_ELEMENT_THEORY = SGP/SGP4

EPOCH          = 2026-03-14T13:50:20.782752
MEAN_MOTION    = 14.06063675
ECCENTRICITY   = .00077579
INCLINATION    = 50.0038
RA_OF_ASC_NODE = 50.5609
ARG_OF_PERICENTER = 264.6066
MEAN_ANOMALY   = 95.3954

EPHEMERIS_TYPE = 0
CLASSIFICATION_TYPE = U
NORAD_CAT_ID   = 68130
ELEMENT_SET_NO = 999
REV_AT_EPOCH   = 24
BSTAR          = .869879E-5
MEAN_MOTION_DOT = -.138E-5
MEAN_MOTION_DDOT = 0

CCSDS_OMM_VERS = 2.0
CREATION_DATE  = 
ORIGINATOR     = 

OBJECT_NAME    = SHIYAN-30 03
OBJECT_ID      = 2026-048A
CENTER_NAME    = EARTH
REF_FRAME      = TEME
TIME_SYSTEM    = UTC
MEAN_ELEMENT_THEORY = SGP/SGP4

EPOCH          = 2026-03-14T14:13:31.675872
MEAN_MOTION    = 14.92809634
ECCENTRICITY   = .0004927
INCLINATION    = 34.9997
RA_OF_ASC_NODE = 114.6735
ARG_OF_PERICENTER = 315.7360
MEAN_ANOMALY   = 44.2950

EPHEMERIS_TYPE = 0
CLASSIFICATION_TYPE = U
NORAD_CAT_ID   = 68139
ELEMENT_SET_NO = 999
REV_AT_EPOCH   = 23
BSTAR          = .38146E-3
MEAN_MOTION_DOT = .3997E-4
MEAN_MOTION_DDOT = 0

CCSDS_OMM_VERS = 2.0
CREATION_DATE  = 
ORIGINATOR     = 

OBJECT_NAME    = SHIYAN-30 04
OBJECT_ID      = 2026-048B
CENTER_NAME    = EARTH
REF_FRAME      = TEME
TIME_SYSTEM    = UTC
MEAN_ELEMENT_THEORY = SGP/SGP4

EPOCH          = 2026-03-14T12:37:34.605408
MEAN_MOTION    = 14.92493878
ECCENTRICITY   = .0004582
INCLINATION    = 34.9911
RA_OF_ASC_NODE = 115.0819
ARG_OF_PERICENTER = 309.3351
MEAN_ANOMALY   = 50.6947

EPHEMERIS_TYPE = 0
CLASSIFICATION_TYPE = U
NORAD_CAT_ID   = 68140
ELEMENT_SET_NO = 999
REV_AT_EPOCH   = 22
BSTAR          = .3141E-3
MEAN_MOTION_DOT = .3259E-4
MEAN_MOTION_DDOT = 0

CCSDS_OMM_VERS = 2.0
CREATION_DATE  = 
ORIGINATOR     = 

OBJECT_NAME    = CZ-2D R/B
OBJECT_ID      = 2026-048C
CENTER_NAME    = EARTH
REF_FRAME      = TEME
TIME_SYSTEM    = UTC
MEAN_ELEMENT_THEORY = SGP/SGP4

EPOCH          = 2026-03-14T14:09:21.331008
MEAN_MOTION    = 14.95517011
ECCENTRICITY   = .00155219
INCLINATION    = 35.1291
RA_OF_ASC_NODE = 114.8293
ARG_OF_PERICENTER = 6.4281
MEAN_ANOMALY   = 353.6624

EPHEMERIS_TYPE = 0
CLASSIFICATION_TYPE = U
NORAD_CAT_ID   = 68141
ELEMENT_SET_NO = 999
REV_AT_EPOCH   = 23
BSTAR          = .18949647E-3
MEAN_MOTION_DOT = .2113E-4
MEAN_MOTION_DDOT = 0

